COSMOS 2584 (704K)      
1 63130U 25042A   25321.03576726 -.00000029  00000+0  00000+0 0  9995
2 63130  64.9625  80.0214 0007372 210.3768 149.5629  2.13103132  5522
COSMOS 2596 (708K)      
1 65590U 25206B   25321.36550650 -.00000049  00000+0  00000+0 0  9995
2 65590  64.7580 322.3562 0013864 303.6133  68.0493  2.13100752  1395
