[
    {
        "OBJECT_NAME": "COSMOS 2584 (704K)",
        "OBJECT_ID": "2025-042A",
        "EPOCH": "2025-11-17T00:51:30.291264",
        "MEAN_MOTION": 2.13103132,
        "ECCENTRICITY": 0.00073724,
        "INCLINATION": 64.9625,
        "RA_OF_ASC_NODE": 80.0214,
        "ARG_OF_PERICENTER": 210.3768,
        "MEAN_ANOMALY": 149.5629,
        "EPHEMERIS_TYPE": 0,
        "CLASSIFICATION_TYPE": "U",
        "NORAD_CAT_ID": 63130,
        "ELEMENT_SET_NO": 999,
        "REV_AT_EPOCH": 552,
        "BSTAR": 0,
        "MEAN_MOTION_DOT": -2.9e-7,
        "MEAN_MOTION_DDOT": 0
    },
    {
        "OBJECT_NAME": "COSMOS 2596 (708K)",
        "OBJECT_ID": "2025-206B",
        "EPOCH": "2025-11-17T08:46:19.761600",
        "MEAN_MOTION": 2.13100752,
        "ECCENTRICITY": 0.0013864,
        "INCLINATION": 64.758,
        "RA_OF_ASC_NODE": 322.3562,
        "ARG_OF_PERICENTER": 303.6133,
        "MEAN_ANOMALY": 68.0493,
        "EPHEMERIS_TYPE": 0,
        "CLASSIFICATION_TYPE": "U",
        "NORAD_CAT_ID": 65590,
        "ELEMENT_SET_NO": 999,
        "REV_AT_EPOCH": 139,
        "BSTAR": 0,
        "MEAN_MOTION_DOT": -4.9e-7,
        "MEAN_MOTION_DDOT": 0
    }
]